{
  "type": "FeatureCollection",
  "features": [
    {
      "type": "Feature",
      "geometry": {
        "type": "Point",
        "coordinates": [
          88.54,
          27.19
        ]
      },
      "properties": {
        "date": "2019-09-14",
        "name": "NH-10 debris slide",
        "state": "Sikkim"
      }
    },
    {
      "type": "Feature",
      "geometry": {
        "type": "Point",
        "coordinates": [
          88.61,
          27.34
        ]
      },
      "properties": {
        "date": "2021-10-20",
        "name": "Chanmari slope failure",
        "state": "Sikkim"
      }
    },
    {
      "type": "Feature",
      "geometry": {
        "type": "Point",
        "coordinates": [
          93.03,
          25.18
        ]
      },
      "properties": {
        "date": "2018-06-11",
        "name": "Haflong cut-slope",
        "state": "Assam"
      }
    },
    {
      "type": "Feature",
      "geometry": {
        "type": "Point",
        "coordinates": [
          92.73,
          23.74
        ]
      },
      "properties": {
        "date": "2022-07-03",
        "name": "Aizawl ramhlun crack",
        "state": "Mizoram"
      }
    },
    {
      "type": "Feature",
      "geometry": {
        "type": "Point",
        "coordinates": [
          94.05,
          25.7
        ]
      },
      "properties": {
        "date": "2020-08-19",
        "name": "Kohima NH-29 blockage",
        "state": "Nagaland"
      }
    },
    {
      "type": "Feature",
      "geometry": {
        "type": "Point",
        "coordinates": [
          91.9,
          27.56
        ]
      },
      "properties": {
        "date": "2017-07-22",
        "name": "Tawang highway slide",
        "state": "Arunachal Pradesh"
      }
    },
    {
      "type": "Feature",
      "geometry": {
        "type": "Point",
        "coordinates": [
          91.74,
          25.28
        ]
      },
      "properties": {
        "date": "2023-06-16",
        "name": "Sohra escarpment rockfall",
        "state": "Meghalaya"
      }
    },
    {
      "type": "Feature",
      "geometry": {
        "type": "Point",
        "coordinates": [
          94.35,
          25.13
        ]
      },
      "properties": {
        "date": "2016-08-02",
        "name": "Ukhrul ridge slide",
        "state": "Manipur"
      }
    },
    {
      "type": "Feature",
      "geometry": {
        "type": "Point",
        "coordinates": [
          91.85,
          25.4
        ]
      },
      "properties": {
        "date": "2024-05-28",
        "name": "East Khasi Hills monsoon cluster",
        "state": "Meghalaya"
      }
    },
    {
      "type": "Feature",
      "geometry": {
        "type": "Point",
        "coordinates": [
          88.4,
          27.16
        ]
      },
      "properties": {
        "date": "2015-09-09",
        "name": "South Sikkim village slide",
        "state": "Sikkim"
      }
    },
    {
      "type": "Feature",
      "geometry": {
        "type": "Point",
        "coordinates": [
          92.74,
          22.89
        ]
      },
      "properties": {
        "date": "2021-06-30",
        "name": "Lunglei hillside",
        "state": "Mizoram"
      }
    },
    {
      "type": "Feature",
      "geometry": {
        "type": "Point",
        "coordinates": [
          93.63,
          27.1
        ]
      },
      "properties": {
        "date": "2019-07-18",
        "name": "Papum Pare valley wall",
        "state": "Arunachal Pradesh"
      }
    }
  ]
}