{
  "type": "FeatureCollection",
  "features": [
    {
      "type": "Feature",
      "geometry": {
        "type": "Polygon",
        "coordinates": [
          [
            [
              91.6,
              26.6
            ],
            [
              97.4,
              26.6
            ],
            [
              97.4,
              29.4
            ],
            [
              91.6,
              29.4
            ],
            [
              91.6,
              26.6
            ]
          ]
        ]
      },
      "properties": {
        "name": "Arunachal Pradesh"
      }
    },
    {
      "type": "Feature",
      "geometry": {
        "type": "Polygon",
        "coordinates": [
          [
            [
              89.7,
              24.1
            ],
            [
              96.0,
              24.1
            ],
            [
              96.0,
              27.9
            ],
            [
              89.7,
              27.9
            ],
            [
              89.7,
              24.1
            ]
          ]
        ]
      },
      "properties": {
        "name": "Assam"
      }
    },
    {
      "type": "Feature",
      "geometry": {
        "type": "Polygon",
        "coordinates": [
          [
            [
              93.0,
              23.8
            ],
            [
              94.8,
              23.8
            ],
            [
              94.8,
              25.7
            ],
            [
              93.0,
              25.7
            ],
            [
              93.0,
              23.8
            ]
          ]
        ]
      },
      "properties": {
        "name": "Manipur"
      }
    },
    {
      "type": "Feature",
      "geometry": {
        "type": "Polygon",
        "coordinates": [
          [
            [
              89.8,
              25.0
            ],
            [
              92.8,
              25.0
            ],
            [
              92.8,
              26.1
            ],
            [
              89.8,
              26.1
            ],
            [
              89.8,
              25.0
            ]
          ]
        ]
      },
      "properties": {
        "name": "Meghalaya"
      }
    },
    {
      "type": "Feature",
      "geometry": {
        "type": "Polygon",
        "coordinates": [
          [
            [
              92.2,
              21.9
            ],
            [
              93.5,
              21.9
            ],
            [
              93.5,
              24.5
            ],
            [
              92.2,
              24.5
            ],
            [
              92.2,
              21.9
            ]
          ]
        ]
      },
      "properties": {
        "name": "Mizoram"
      }
    },
    {
      "type": "Feature",
      "geometry": {
        "type": "Polygon",
        "coordinates": [
          [
            [
              93.3,
              25.2
            ],
            [
              95.3,
              25.2
            ],
            [
              95.3,
              27.0
            ],
            [
              93.3,
              27.0
            ],
            [
              93.3,
              25.2
            ]
          ]
        ]
      },
      "properties": {
        "name": "Nagaland"
      }
    },
    {
      "type": "Feature",
      "geometry": {
        "type": "Polygon",
        "coordinates": [
          [
            [
              88.0,
              27.0
            ],
            [
              88.9,
              27.0
            ],
            [
              88.9,
              28.1
            ],
            [
              88.0,
              28.1
            ],
            [
              88.0,
              27.0
            ]
          ]
        ]
      },
      "properties": {
        "name": "Sikkim"
      }
    },
    {
      "type": "Feature",
      "geometry": {
        "type": "Polygon",
        "coordinates": [
          [
            [
              91.1,
              22.9
            ],
            [
              92.3,
              22.9
            ],
            [
              92.3,
              24.5
            ],
            [
              91.1,
              24.5
            ],
            [
              91.1,
              22.9
            ]
          ]
        ]
      },
      "properties": {
        "name": "Tripura"
      }
    }
  ]
}