{
  "type": "FeatureCollection",
  "features": [
    {
      "type": "Feature",
      "geometry": {
        "type": "LineString",
        "coordinates": [
          [
            88.43,
            26.89
          ],
          [
            88.5,
            27.05
          ],
          [
            88.53,
            27.17
          ],
          [
            88.57,
            27.25
          ],
          [
            88.61,
            27.33
          ]
        ]
      },
      "properties": {
        "id": "nh10",
        "name": "NH-10",
        "status": "open"
      }
    },
    {
      "type": "Feature",
      "geometry": {
        "type": "LineString",
        "coordinates": [
          [
            92.8,
            24.83
          ],
          [
            92.9,
            25.0
          ],
          [
            93.02,
            25.17
          ],
          [
            93.2,
            25.4
          ]
        ]
      },
      "properties": {
        "id": "nh6-barak",
        "name": "NH-6 Barak",
        "status": "at_risk"
      }
    },
    {
      "type": "Feature",
      "geometry": {
        "type": "LineString",
        "coordinates": [
          [
            92.72,
            23.73
          ],
          [
            92.73,
            23.3
          ],
          [
            92.73,
            22.88
          ]
        ]
      },
      "properties": {
        "id": "nh2-mizoram",
        "name": "NH-2 Mizoram",
        "status": "open"
      }
    },
    {
      "type": "Feature",
      "geometry": {
        "type": "LineString",
        "coordinates": [
          [
            93.73,
            25.91
          ],
          [
            93.9,
            25.8
          ],
          [
            94.11,
            25.67
          ]
        ]
      },
      "properties": {
        "id": "nh29",
        "name": "NH-29 Kohima\u2013Dimapur",
        "status": "blocked"
      }
    },
    {
      "type": "Feature",
      "geometry": {
        "type": "LineString",
        "coordinates": [
          [
            92.4,
            27.2
          ],
          [
            92.1,
            27.4
          ],
          [
            91.87,
            27.59
          ]
        ]
      },
      "properties": {
        "id": "nh13-tawang",
        "name": "Tawang highway",
        "status": "at_risk"
      }
    },
    {
      "type": "Feature",
      "geometry": {
        "type": "LineString",
        "coordinates": [
          [
            91.88,
            25.57
          ],
          [
            91.82,
            25.42
          ],
          [
            91.73,
            25.27
          ]
        ]
      },
      "properties": {
        "id": "nh6-khasi",
        "name": "Shillong\u2013Sohra",
        "status": "open"
      }
    },
    {
      "type": "Feature",
      "geometry": {
        "type": "LineString",
        "coordinates": [
          [
            93.94,
            24.81
          ],
          [
            94.05,
            25.2
          ],
          [
            94.11,
            25.67
          ]
        ]
      },
      "properties": {
        "id": "nh2-manipur",
        "name": "NH-2 Imphal\u2013Kohima",
        "status": "open"
      }
    },
    {
      "type": "Feature",
      "geometry": {
        "type": "LineString",
        "coordinates": [
          [
            91.29,
            23.83
          ],
          [
            91.5,
            23.84
          ],
          [
            91.94,
            23.84
          ]
        ]
      },
      "properties": {
        "id": "nh8-tripura",
        "name": "NH-8 Tripura",
        "status": "open"
      }
    },
    {
      "type": "Feature",
      "geometry": {
        "type": "LineString",
        "coordinates": [
          [
            93.62,
            27.08
          ],
          [
            93.72,
            27.35
          ],
          [
            93.83,
            27.63
          ]
        ]
      },
      "properties": {
        "id": "nh15-itanagar",
        "name": "Itanagar\u2013Ziro",
        "status": "at_risk"
      }
    }
  ]
}